NORAD_CAT_ID,OBJECT_NAME,OBJECT_TYPE,EPOCH,MEAN_MOTION,ECCENTRICITY,INCLINATION,RA_OF_ASC_NODE,ARG_OF_PERICENTER,MEAN_ANOMALY,BSTAR,MEAN_MOTION_DOT,MEAN_MOTION_DDOT,TLE_LINE0,TLE_LINE1,TLE_LINE2,SEMIMAJOR_AXIS,PERIOD,APOGEE,PERIGEE,DECAYED
52304.0,STARLINK-3744,PAYLOAD,2023-02-06 12:04:00,15.08853257,9.59e-05,53.216,109.2667,91.0533,269.0569,1.5021e-05,-4.9e-07,0.0,0 STARLINK-3744,1 52304U 22041AV  23037.50278020 -.00000049  00000-0  15021-4 0  9999,2 52304  53.2160 109.2667 0000959  91.0533 269.0569 15.08853257 44478,6917.84,95.437,540.368,539.041,0.0
52304.0,STARLINK-3744,PAYLOAD,2023-02-06 23:11:42,15.08844016,0.0001572,53.2158,107.185,86.5358,273.5814,0.00011642,1.565e-05,0.0,0 STARLINK-3744,1 52304U 22041AV  23037.96646252  .00001565  00000-0  11642-3 0  9992,2 52304  53.2158 107.1850 0001572  86.5358 273.5814 15.08844016 45761,6917.868,95.437,540.821,538.646,0.0
52304.0,STARLINK-3744,PAYLOAD,2023-02-07 11:54:46,15.08853276,9.74e-05,53.2164,104.8071,95.8854,264.2249,0.00019383,2.799e-05,0.0,0 STARLINK-3744,1 52304U 22041AV  23038.49637110  .00002799  00000-0  19383-3 0  9994,2 52304  53.2164 104.8071 0000974  95.8854 264.2249 15.08853276 45842,6917.84,95.437,540.379,539.031,0.0
52304.0,STARLINK-3744,PAYLOAD,2023-02-07 21:27:05,15.08846663,0.0001031,53.2163,103.0218,82.1987,277.9123,0.00010715,1.418e-05,0.0,0 STARLINK-3744,1 52304U 22041AV  23038.89381672  .00001418  00000-0  10715-3 0  9994,2 52304  53.2163 103.0218 0001031  82.1987 277.9123 15.08846663 44681,6917.86,95.437,540.438,539.012,0.0
52304.0,STARLINK-3744,PAYLOAD,2023-02-08 11:45:34,15.08842174,0.0001071,53.217,100.3467,64.6197,295.4906,2.6382e-05,1.32e-06,0.0,0 STARLINK-3744,1 52304U 22041AV  23039.48998335  .00000132  00000-0  26382-4 0  9990,2 52304  53.2170 100.3467 0001071  64.6197 295.4906 15.08842174 45999,6917.874,95.437,540.48,538.998,0.0
52304.0,STARLINK-3744,PAYLOAD,2023-02-09 03:39:26,15.08833393,0.000119,53.2168,97.3743,95.5744,264.5384,-0.00010024,-1.882e-05,0.0,0 STARLINK-3744,1 52304U 22041AV  23040.15239298 -.00001882  00000-0 -10024-3 0  9992,2 52304  53.2168  97.3743 0001190  95.5744 264.5384 15.08833393 46093,6917.901,95.438,540.589,538.942,0.0
52304.0,STARLINK-3744,PAYLOAD,2023-02-09 10:00:59,15.08834351,0.0001449,53.2165,96.1866,77.5293,282.5861,-7.9685e-05,-1.556e-05,0.0,0 STARLINK-3744,1 52304U 22041AV  23040.41735328 -.00001556  00000-0 -79685-4 0  9993,2 52304  53.2165  96.1866 0001449  77.5293 282.5861 15.08834351 44913,6917.898,95.438,540.765,538.76,0.0
52304.0,STARLINK-3744,PAYLOAD,2023-02-10 00:19:27,15.08828654,0.0001419,53.2161,93.5061,102.7088,257.4063,0.00014589,2.034e-05,0.0,0 STARLINK-3744,1 52304U 22041AV  23041.01351174  .00002034  00000-0  14589-3 0  9994,2 52304  53.2161  93.5061 0001419 102.7088 257.4063 15.08828654 45002,6917.915,95.438,540.762,538.798,0.0
52304.0,STARLINK-3744,PAYLOAD,2023-02-10 09:51:45,15.08844584,0.000141,53.2155,91.7208,106.2027,253.912,0.00032334,4.862e-05,0.0,0 STARLINK-3744,1 52304U 22041AV  23041.41094752  .00004862  00000-0  32334-3 0  9993,2 52304  53.2155  91.7208 0001410 106.2027 253.9120 15.08844584 46287,6917.866,95.437,540.707,538.756,0.0
52304.0,STARLINK-3744,PAYLOAD,2023-02-11 01:45:37,15.08835674,0.0002302,53.215,88.75,140.4442,219.6718,0.00021797,3.182e-05,0.0,0 STARLINK-3744,1 52304U 22041AV  23042.07335280  .00003182  00000-0  21797-3 0  9995,2 52304  53.2150  88.7500 0002302 140.4442 219.6718 15.08835674 46388,6917.894,95.438,541.351,538.166,0.0
52304.0,STARLINK-3744,PAYLOAD,2023-02-11 06:31:47,15.08835126,0.0001253,53.2156,87.858,97.4787,262.6347,0.00020916,3.042e-05,0.0,0 STARLINK-3744,1 52304U 22041AV  23042.27207690  .00003042  00000-0  20916-3 0  9997,2 52304  53.2156  87.8580 0001253  97.4787 262.6347 15.08835126 45195,6917.895,95.438,540.627,538.893,0.0
52304.0,STARLINK-3744,PAYLOAD,2023-02-11 09:42:33,15.08844597,0.0001423,53.2153,87.2612,114.6775,245.4365,0.00032541,4.895e-05,0.0,0 STARLINK-3744,1 52304U 22041AV  23042.40455088  .00004895  00000-0  32541-3 0  9992,2 52304  53.2153  87.2612 0001423 114.6775 245.4365 15.08844597 45214,6917.866,95.437,540.716,538.747,0.0
52304.0,STARLINK-3744,PAYLOAD,2023-02-12 04:47:11,15.08836944,0.0001487,53.2157,83.6917,130.3762,229.736,6.0163e-05,6.7e-06,0.0,0 STARLINK-3744,1 52304U 22041AV  23043.19943583  .00000670  00000-0  60163-4 0  9990,2 52304  53.2157  83.6917 0001487 130.3762 229.7360 15.08836944 46552,6917.89,95.438,540.783,538.726,0.0
52304.0,STARLINK-3744,PAYLOAD,2023-02-12 09:33:20,15.08844199,0.000127,53.2155,82.8012,118.4033,241.7088,0.00016099,2.275e-05,0.0,0 STARLINK-3744,1 52304U 22041AV  23043.39815321  .00002275  00000-0  16099-3 0  9991,2 52304  53.2155  82.8012 0001270 118.4033 241.7088 15.08844199 45365,6917.868,95.437,540.611,538.854,0.0
52304.0,STARLINK-3744,PAYLOAD,2023-02-12 19:05:38,15.08847334,0.0001339,53.2151,81.0175,124.0699,236.042,9.5251e-05,1.229e-05,0.0,0 STARLINK-3744,1 52304U 22041AV  23043.79559018  .00001229  00000-0  95251-4 0  9999,2 52304  53.2151  81.0175 0001339 124.0699 236.0420 15.08847334 46642,6917.858,95.437,540.649,538.797,0.0
52304.0,STARLINK-3744,PAYLOAD,2023-02-13 04:37:58,15.08833391,0.0001194,53.2163,79.2324,106.7835,253.3288,2.5576e-06,-2.47e-06,0.0,0 STARLINK-3744,1 52304U 22041AV  23044.19303997 -.00000247  00000-0  25576-5 0  9991,2 52304  53.2163  79.2324 0001194 106.7835 253.3288 15.08833391 46707,6917.901,95.438,540.592,538.94,0.0
52304.0,STARLINK-3744,PAYLOAD,2023-02-13 10:59:30,15.08847813,0.0001268,53.2156,78.0424,105.4327,254.6805,0.00022936,3.365e-05,0.0,0 STARLINK-3744,1 52304U 22041AV  23044.45799401  .00003365  00000-0  22936-3 0  9997,2 52304  53.2156  78.0424 0001268 105.4327 254.6805 15.08847813 46748,6917.857,95.437,540.599,538.844,0.0
52304.0,STARLINK-3744,PAYLOAD,2023-02-14 02:53:22,15.08831843,0.0001347,53.2153,75.0681,115.447,244.6661,-3.8301e-05,-8.97e-06,0.0,0 STARLINK-3744,1 52304U 22041AV  23045.12040108 -.00000897  00000-0 -38301-4 0  9998,2 52304  53.2153  75.0681 0001347 115.4470 244.6661 15.08831843 46841,6917.905,95.438,540.702,538.838,0.0
52304.0,STARLINK-3744,PAYLOAD,2023-02-14 12:25:41,15.08843096,0.0001347,53.2144,73.284,103.155,256.9593,0.00016299,2.307e-05,0.0,0 STARLINK-3744,1 52304U 22041AV  23045.51783803  .00002307  00000-0  16299-3 0  9994,2 52304  53.2144  73.2840 0001347 103.1550 256.9593 15.08843096 45685,6917.871,95.437,540.668,538.804,0.0
52304.0,STARLINK-3744,PAYLOAD,2023-02-14 18:47:13,15.08844312,0.0001298,53.2158,72.093,89.7926,270.3215,5.1824e-05,5.37e-06,0.0,0 STARLINK-3744,1 52304U 22041AV  23045.78279699  .00000537  00000-0  51824-4 0  9993,2 52304  53.2158  72.0930 0001298  89.7926 270.3215 15.08844312 46941,6917.867,95.437,540.63,538.834,0.0
52304.0,STARLINK-3744,PAYLOAD,2023-02-15 09:05:42,15.08837869,0.000136,53.2167,69.4168,95.81,264.3047,0.00016746,2.378e-05,0.0,0 STARLINK-3744,1 52304U 22041AV  23046.37896201  .00002378  00000-0  16746-3 0  9991,2 52304  53.2167  69.4168 0001360  95.8100 264.3047 15.08837869 47032,6917.887,95.438,540.693,538.811,0.0
52304.0,STARLINK-3744,PAYLOAD,2023-02-15 10:41:05,15.08843909,0.0001321,53.2163,69.1201,89.2528,270.8615,0.00023376,3.435e-05,0.0,0 STARLINK-3744,1 52304U 22041AV  23046.44519899  .00003435  00000-0  23376-3 0  9996,2 52304  53.2163  69.1201 0001321  89.2528 270.8615 15.08843909 45821,6917.868,95.437,540.647,538.82,0.0
52304.0,STARLINK-3744,PAYLOAD,2023-02-15 18:38:02,15.08818672,0.0001361,53.2158,67.6344,85.6591,274.4557,-0.00020813,-3.597e-05,0.0,0 STARLINK-3744,1 52304U 22041AV  23046.77641466 -.00003597  00000-0 -20813-3 0  9992,2 52304  53.2158  67.6344 0001361  85.6591 274.4557 15.08818672 47095,6917.946,95.439,540.752,538.869,0.0
52304.0,STARLINK-3744,PAYLOAD,2023-02-15 21:48:48,15.08817804,0.0001141,53.2165,67.04,92.3157,267.7965,-0.00018568,-3.24e-05,0.0,0 STARLINK-3744,1 52304U 22041AV  23046.90889605 -.00003240  00000-0 -18568-3 0  9995,2 52304  53.2165  67.0400 0001141  92.3157 267.7965 15.08817804 45899,6917.948,95.439,540.603,539.024,0.0
52304.0,STARLINK-3744,PAYLOAD,2023-02-16 07:21:07,15.08830216,0.0001014,53.2159,65.2545,87.6594,272.4514,8.7762e-05,1.109e-05,0.0,0 STARLINK-3744,1 52304U 22041AV  23047.30633444  .00001109  00000-0  87762-4 0  9991,2 52304  53.2159  65.2545 0001014  87.6594 272.4514 15.08830216 47171,6917.91,95.438,540.477,539.074,0.0
52304.0,STARLINK-3744,PAYLOAD,2023-02-16 10:31:53,15.08832979,0.0001052,53.2163,64.6587,95.0062,265.105,2.3621e-05,8.8e-07,0.0,0 STARLINK-3744,1 52304U 22041AV  23047.43881367  .00000088  00000-0  23621-4 0  9993,2 52304  53.2163  64.6587 0001052  95.0062 265.1050 15.08832979 45978,6917.902,95.438,540.495,539.039,0.0
52304.0,STARLINK-3744,PAYLOAD,2023-02-16 18:28:49,15.08838538,9.15e-05,53.2174,63.1723,114.7859,245.3229,0.00010733,1.421e-05,0.0,0 STARLINK-3744,1 52304U 22041AV  23047.77001221  .00001421  00000-0  10733-3 0  9994,2 52304  53.2174  63.1723 0000915 114.7859 245.3229 15.08838538 46028,6917.885,95.438,540.383,539.117,0.0
52304.0,STARLINK-3744,PAYLOAD,2023-02-17 10:22:40,15.08852392,0.0001298,53.2153,60.1984,95.0585,265.0555,0.00050672,7.788e-05,0.0,0 STARLINK-3744,1 52304U 22041AV  23048.43241130  .00007788  00000-0  50672-3 0  9991,2 52304  53.2153  60.1984 0001298  95.0585 265.0555 15.08852392 47344,6917.843,95.437,540.605,538.81,0.0
52304.0,STARLINK-3744,PAYLOAD,2023-02-18 10:13:27,15.08849962,0.000129,53.2158,55.7384,99.8276,260.2862,0.00027941,4.163e-05,0.0,0 STARLINK-3744,1 52304U 22041AV  23049.42601248  .00004163  00000-0  27941-3 0  9998,2 52304  53.2158  55.7384 0001290  99.8276 260.2862 15.08849962 47497,6917.85,95.437,540.607,538.823,0.0
52304.0,STARLINK-3744,PAYLOAD,2023-02-19 10:04:13,15.08856822,0.0001407,53.2165,51.278,97.0116,263.1036,0.00026645,3.957e-05,0.0,0 STARLINK-3744,1 52304U 22041AV  23050.41960428  .00003957  00000-0  26645-3 0  9997,2 52304  53.2165  51.2780 0001407  97.0116 263.1036 15.08856822 46429,6917.829,95.436,540.667,538.721,0.0
